STARLINK-30305          
1 57775U 23134E   26068.36235210 -.00000642  00000+0 -13812-4 0  9990
2 57775  42.9993 196.5981 0001334 208.7239 151.3540 15.27572198139458
XCUBE-1                 
1 62400U 24247Z   26068.48297321  .00009773  00000+0  36224-3 0  9994
2 62400  44.9938 117.7807 0005235 331.1499  28.9094 15.27910558 67702
